NORAD_CAT_ID,OBJECT_NAME,OBJECT_TYPE,EPOCH,MEAN_MOTION,ECCENTRICITY,INCLINATION,RA_OF_ASC_NODE,ARG_OF_PERICENTER,MEAN_ANOMALY,BSTAR,MEAN_MOTION_DOT,MEAN_MOTION_DDOT,TLE_LINE0,TLE_LINE1,TLE_LINE2,SEMIMAJOR_AXIS,PERIOD,APOGEE,PERIGEE,DECAYED
52993.0,STARLINK-4264,PAYLOAD,2023-06-03 19:23:28,15.08844568,9.24e-05,53.2171,307.6556,99.2337,260.876,0.00012005,1.624e-05,0.0,0 STARLINK-4264,1 52993U 22076H   23154.80797169  .00001624  00000-0  12005-3 0  9991,2 52993  53.2171 307.6556 0000924  99.2337 260.8760 15.08844568 50383,6917.866,95.437,540.371,539.092,0.0
52993.0,STARLINK-4264,PAYLOAD,2023-06-04 09:41:57,15.08835663,9.9e-05,53.217,304.9795,90.8213,269.2893,0.0001057,1.395e-05,0.0,0 STARLINK-4264,1 52993U 22076H   23155.40413944  .00001395  00000-0  10570-3 0  9994,2 52993  53.2170 304.9795 0000990  90.8213 269.2893 15.08835663 50948,6917.894,95.438,540.444,539.074,0.0
52993.0,STARLINK-4264,PAYLOAD,2023-06-04 14:28:07,15.08834824,9.27e-05,53.2172,304.0864,88.9037,271.2062,9.7141e-05,1.258e-05,0.0,0 STARLINK-4264,1 52993U 22076H   23155.60286069  .00001258  00000-0  97141-4 0  9990,2 52993  53.2172 304.0864 0000927  88.9037 271.2062 15.08834824 50501,6917.896,95.438,540.402,539.12,0.0
52993.0,STARLINK-4264,PAYLOAD,2023-06-04 17:38:53,15.08842181,9.35e-05,53.2172,303.4916,87.5197,272.5902,8.8504e-05,1.121e-05,0.0,0 STARLINK-4264,1 52993U 22076H   23155.73533688  .00001121  00000-0  88504-4 0  9998,2 52993  53.2172 303.4916 0000935  87.5197 272.5902 15.08842181 50527,6917.874,95.437,540.386,539.092,0.0
52993.0,STARLINK-4264,PAYLOAD,2023-06-05 12:43:30,15.08844311,9.65e-05,53.217,299.923,85.3355,274.7748,9.879e-05,1.285e-05,0.0,0 STARLINK-4264,1 52993U 22076H   23156.53021493  .00001285  00000-0  98790-4 0  9992,2 52993  53.2170 299.9230 0000965  85.3355 274.7748 15.08844311 50640,6917.867,95.437,540.4,539.065,0.0
52993.0,STARLINK-4264,PAYLOAD,2023-06-05 15:54:16,15.08849847,9.42e-05,53.217,299.328,87.0595,273.0505,0.00015285,2.146e-05,0.0,0 STARLINK-4264,1 52993U 22076H   23156.66269034  .00002146  00000-0  15285-3 0  9995,2 52993  53.2170 299.3280 0000942  87.0595 273.0505 15.08849847 51136,6917.85,95.437,540.367,539.064,0.0
52993.0,STARLINK-4264,PAYLOAD,2023-06-06 09:23:31,15.08839034,8.13e-05,53.2164,296.0573,78.3722,281.7362,8.8665e-05,1.124e-05,0.0,0 STARLINK-4264,1 52993U 22076H   23157.39133787  .00001124  00000-0  88665-4 0  9999,2 52993  53.2164 296.0573 0000813  78.3722 281.7362 15.08839034 51246,6917.883,95.438,540.311,539.186,0.0
52993.0,STARLINK-4264,PAYLOAD,2023-06-06 12:34:18,15.08833735,9.6e-05,53.2163,295.4628,84.0287,276.0814,-8.0637e-06,-4.16e-06,0.0,0 STARLINK-4264,1 52993U 22076H   23157.52382050 -.00000416  00000-0 -80637-5 0  9990,2 52993  53.2163 295.4628 0000960  84.0287 276.0814 15.08833735 50792,6917.9,95.438,540.429,539.1,0.0
52993.0,STARLINK-4264,PAYLOAD,2023-06-06 15:45:03,15.08839454,0.000101,53.2174,294.8678,94.4408,265.67,5.996e-05,6.67e-06,0.0,0 STARLINK-4264,1 52993U 22076H   23157.65629595  .00000667  00000-0  59960-4 0  9992,2 52993  53.2174 294.8678 0001010  94.4408 265.6700 15.08839454 50814,6917.882,95.438,540.446,539.048,0.0
52993.0,STARLINK-4264,PAYLOAD,2023-06-07 09:14:18,15.08837263,0.000103,53.2169,291.5965,89.7619,270.3491,-3.4906e-06,-3.43e-06,0.0,0 STARLINK-4264,1 52993U 22076H   23158.38494022 -.00000343  00000-0 -34906-5 0  9995,2 52993  53.2169 291.5965 0001030  89.7619 270.3491 15.08837263 50922,6917.889,95.438,540.466,539.041,0.0
52993.0,STARLINK-4264,PAYLOAD,2023-06-08 12:15:52,15.08831639,0.0001078,53.2166,286.5411,86.24,273.8715,0.00015388,2.162e-05,0.0,0 STARLINK-4264,1 52993U 22076H   23159.51102200  .00002162  00000-0  15388-3 0  9995,2 52993  53.2166 286.5411 0001078  86.2400 273.8715 15.08831639 51098,6917.906,95.438,540.517,539.025,0.0
52993.0,STARLINK-4264,PAYLOAD,2023-06-09 08:55:53,15.08822343,8.79e-05,53.2165,282.6776,86.3544,273.7549,0.00025978,3.847e-05,0.0,0 STARLINK-4264,1 52993U 22076H   23160.37214424  .00003847  00000-0  25978-3 0  9990,2 52993  53.2165 282.6776 0000879  86.3544 273.7549 15.08822343 51227,6917.934,95.439,540.407,539.191,0.0
52993.0,STARLINK-4264,PAYLOAD,2023-06-10 00:49:44,15.08842055,0.0001094,53.2165,279.7038,101.9361,258.1754,-1.4286e-05,-5.15e-06,0.0,0 STARLINK-4264,1 52993U 22076H   23161.03454388 -.00000515  00000-0 -14286-4 0  9991,2 52993  53.2165 279.7038 0001094 101.9361 258.1754 15.08842055 51795,6917.874,95.437,540.496,538.982,0.0
52993.0,STARLINK-4264,PAYLOAD,2023-06-10 08:46:40,15.08834266,0.000109,53.2172,278.2167,112.0335,248.0773,6.0249e-07,-2.78e-06,0.0,0 STARLINK-4264,1 52993U 22076H   23161.36574750 -.00000278  00000-0  60249-6 0  9990,2 52993  53.2172 278.2167 0001090 112.0335 248.0773 15.08834266 51840,6917.898,95.438,540.517,539.009,0.0
52993.0,STARLINK-4264,PAYLOAD,2023-06-10 15:08:12,15.08840014,0.0001012,53.2177,277.0277,101.3192,258.7914,4.5448e-05,4.36e-06,0.0,0 STARLINK-4264,1 52993U 22076H   23161.63070322  .00000436  00000-0  45448-4 0  9993,2 52993  53.2177 277.0277 0001012 101.3192 258.7914 15.08840014 51416,6917.88,95.438,540.445,539.045,0.0
52993.0,STARLINK-4264,PAYLOAD,2023-06-11 00:40:31,15.08845584,8.73e-05,53.2168,275.2409,84.7698,275.3394,1.8613e-05,9e-08,0.0,0 STARLINK-4264,1 52993U 22076H   23162.02813910  .00000009  00000-0  18613-4 0  9995,2 52993  53.2168 275.2409 0000873  84.7698 275.3394 15.08845584 51944,6917.863,95.437,540.332,539.124,0.0
52993.0,STARLINK-4264,PAYLOAD,2023-06-11 08:37:27,15.08837962,0.0001083,53.2176,273.7564,85.7568,274.3548,2.4892e-05,1.08e-06,0.0,0 STARLINK-4264,1 52993U 22076H   23162.35934604  .00000108  00000-0  24892-4 0  9991,2 52993  53.2176 273.7564 0001083  85.7568 274.3548 15.08837962 51995,6917.887,95.438,540.501,539.002,0.0
52993.0,STARLINK-4264,PAYLOAD,2023-06-11 16:34:22,15.08845046,0.0001131,53.2172,272.2679,81.7557,278.3563,6.4539e-05,7.4e-06,0.0,0 STARLINK-4264,1 52993U 22076H   23162.69054026  .00000740  00000-0  64539-4 0  9993,2 52993  53.2172 272.2679 0001131  81.7557 278.3563 15.08845046 52040,6917.865,95.437,540.512,538.948,0.0
52993.0,STARLINK-4264,PAYLOAD,2023-06-11 18:09:45,15.08845385,0.000109,53.217,271.9706,81.856,278.2556,7.5246e-05,9.1e-06,0.0,0 STARLINK-4264,1 52993U 22076H   23162.75677944  .00000910  00000-0  75246-4 0  9996,2 52993  53.2170 271.9706 0001090  81.8560 278.2556 15.08845385 51589,6917.864,95.437,540.483,538.975,0.0
52993.0,STARLINK-4264,PAYLOAD,2023-06-12 06:52:51,15.08834233,0.0001111,53.2164,269.5916,96.4401,263.6717,4.3391e-05,4.03e-06,0.0,0 STARLINK-4264,1 52993U 22076H   23163.28670739  .00000403  00000-0  43391-4 0  9993,2 52993  53.2164 269.5916 0001111  96.4401 263.6717 15.08834233 52137,6917.898,95.438,540.532,538.994,0.0
52993.0,STARLINK-4264,PAYLOAD,2023-06-12 13:14:23,15.08835851,0.0001096,53.2163,268.4021,95.7066,264.4052,5.1392e-05,5.3e-06,0.0,0 STARLINK-4264,1 52993U 22076H   23163.55166661  .00000530  00000-0  51392-4 0  9998,2 52993  53.2163 268.4021 0001096  95.7066 264.4052 15.08835851 51702,6917.893,95.438,540.516,539.0,0.0
52993.0,STARLINK-4264,PAYLOAD,2023-06-13 00:22:05,15.08842732,0.0001095,53.2163,266.3209,85.9589,274.1528,3.4291e-05,2.58e-06,0.0,0 STARLINK-4264,1 52993U 22076H   23164.01534282  .00000258  00000-0  34291-4 0  9994,2 52993  53.2163 266.3209 0001095  85.9589 274.1528 15.08842732 52249,6917.872,95.437,540.495,538.98,0.0
52993.0,STARLINK-4264,PAYLOAD,2023-06-13 09:54:24,15.08835794,0.0001168,53.2168,264.537,86.7984,273.3142,1.9706e-05,2.6e-07,0.0,0 STARLINK-4264,1 52993U 22076H   23164.41278790  .00000026  00000-0  19706-4 0  9994,2 52993  53.2168 264.5370 0001168  86.7984 273.3142 15.08835794 52302,6917.893,95.438,540.566,538.95,0.0
52993.0,STARLINK-4264,PAYLOAD,2023-06-14 00:12:52,15.08843029,0.000102,53.2166,261.8608,95.5161,264.5948,1.0916e-05,-1.14e-06,0.0,0 STARLINK-4264,1 52993U 22076H   23165.00894275 -.00000114  00000-0  10916-4 0  9995,2 52993  53.2166 261.8608 0001020  95.5161 264.5948 15.08843029 52391,6917.871,95.437,540.442,539.031,0.0
52993.0,STARLINK-4264,PAYLOAD,2023-06-14 06:34:25,15.08837452,0.0001136,53.2163,260.6716,87.5074,272.6048,7.0882e-05,8.4e-06,0.0,0 STARLINK-4264,1 52993U 22076H   23165.27390538  .00000840  00000-0  70882-4 0  9990,2 52993  53.2163 260.6716 0001136  87.5074 272.6048 15.08837452 51963,6917.888,95.438,540.539,538.967,0.0
52993.0,STARLINK-4264,PAYLOAD,2023-06-14 16:06:44,15.08841241,0.0001161,53.2164,258.8871,90.4558,269.6568,5.4513e-05,5.8e-06,0.0,0 STARLINK-4264,1 52993U 22076H   23165.67134343  .00000580  00000-0  54513-4 0  9998,2 52993  53.2164 258.8871 0001161  90.4558 269.6568 15.08841241 52025,6917.877,95.437,540.545,538.938,0.0
52993.0,STARLINK-4264,PAYLOAD,2023-06-15 09:35:59,15.08833772,0.0001108,53.216,255.6149,98.2331,261.8786,7.4419e-06,-1.69e-06,0.0,0 STARLINK-4264,1 52993U 22076H   23166.39999045 -.00000169  00000-0  74419-5 0  9998,2 52993  53.2160 255.6149 0001108  98.2331 261.8786 15.08833772 52600,6917.899,95.438,540.531,538.998,0.0
52993.0,STARLINK-4264,PAYLOAD,2023-06-15 12:46:45,15.08836559,0.0001104,53.2163,255.02,96.7889,263.3229,1.318e-05,-7.8e-07,0.0,0 STARLINK-4264,1 52993U 22076H   23166.53246906 -.00000078  00000-0  13180-4 0  9991,2 52993  53.2163 255.0200 0001104  96.7889 263.3229 15.08836559 52157,6917.891,95.438,540.52,538.992,0.0
52993.0,STARLINK-4264,PAYLOAD,2023-06-15 22:19:03,15.08839596,0.0001078,53.2161,253.2358,95.393,264.7185,4.1451e-05,3.72e-06,0.0,0 STARLINK-4264,1 52993U 22076H   23166.92990653  .00000372  00000-0  41451-4 0  9997,2 52993  53.2161 253.2358 0001078  95.3930 264.7185 15.08839596 52689,6917.882,95.438,540.492,539.001,0.0
52993.0,STARLINK-4264,PAYLOAD,2023-06-16 09:26:44,15.08863965,0.000166,53.2165,251.1551,87.7893,272.3289,-9.2646e-05,-1.763e-05,0.0,0 STARLINK-4264,1 52993U 22076H   23167.39357577 -.00001763  00000-0 -92646-4 0  9990,2 52993  53.2165 251.1551 0001660  87.7893 272.3289 15.08863965 52750,6917.807,95.436,540.82,538.524,0.0
